CIC_OEM_VERS = 2.0
CREATION_DATE = 2025-01-28T14:09:26.089331
ORIGINATOR = ISAE-SUPAERO


META_START
OBJECT_NAME = PLEIADES1A
OBJECT_ID = PLEIADES1A
CENTER_NAME = Earth
REF_FRAME = EME2000
TIME_SYSTEM = UTC
START_TIME = 2025-01-28T03:22:33.268
USEABLE_START_TIME = 2025-01-28T03:22:33.268
USEABLE_STOP_TIME = 2025-01-28T23:54:33.268
STOP_TIME = 2025-01-28T23:54:33.268
INTERPOLATION = lagrange
INTERPOLATION_DEGREE = 5
META_STOP



60703 12153.268 -1569.622 6652.3395 1830.2202 1.517319 -1.6155760000000001 7.170888
60703 12573.268 -798.60252 5339.7153 4560.4358 2.0886527 -4.5014343 5.638311
60703 12993.268 128.46926 2984.1169 6398.0254 2.2521945999999997 -6.5156229 2.9889263
60703 13413.268 1031.3673000000001 44.530061 6986.8501 1.9715673999999999 -7.2428498 -0.24764988
60703 13833.268 1731.8354 -2903.3774 6201.6457 1.3068506 -6.5549509 -3.4284486000000003
60703 14253.268 2093.3478 -5282.1041 4201.168 0.38564862 -4.5834069 -5.9402295
60703 14673.268 2045.0119 -6626.6111 1375.9965 -0.6120339300000001 -1.7122492 -7.2884593
60703 15093.268 1596.2051999999999 -6673.378900000001 -1719.4537 -1.489339 1.4924616000000002 -7.2056765
60703 15513.268 835.38522 -5415.5955 -4477.8999 -2.0736685 4.3973756999999996 -5.7127337
60703 15933.268 -88.488179 -3101.6644 -6361.6759 -2.2527062 6.4372747 -3.1105295
60703 16353.268 -995.23861 -184.96991 -7006.3604000000005 -1.9939677999999998 7.2223370000000005 0.090537879
60703 16773.268 -1708.9194 2767.6249 -6288.2266 -1.3483535 6.6056232 3.2730749
60703 17193.268 -2090.7209 5182.598400000001 -4345.934200000001 -0.43926743 4.7032779 5.8238827
60703 17613.268 -2065.4442 6588.4547 -1555.2795 0.55825042 1.8778591 7.2436351000000005
60703 18033.268 -1636.9077 6707.691 1539.3371000000002 1.4487607 -1.3204031 7.24727
60703 18453.268 -888.34515 5515.4588 4332.1626 2.0565618 -4.2625168 5.830187700000001
60703 18873.268 33.907455999999996 3244.9042000000004 6275.9176 2.2621033 -6.3696827 3.2718538
60703 19293.268 949.55983 340.41332 6990.5602 2.0257271 -7.2314641 0.07467330900000001
60703 19713.268 1679.8867 -2630.9952000000003 6336.4863 1.3934896 -6.6805545 -3.1378697000000004
60703 20133.268 2081.7332 -5087.5238 4441.0423 0.48795284 -4.8223697 -5.7389421
60703 20553.268 2076.172 -6548.4078 1674.2471 -0.5140704899999999 -2.0182279000000003 -7.216539200000001
60703 20973.268 1664.1433000000002 -6727.3263 -1421.2364 -1.4151236 1.1797532000000002 -7.2778324
60703 21393.268 926.80832 -5591.2127 -4238.1674 -2.0377955 4.1399028 -5.9145836
60703 21813.268 8.5908766 -3364.6576 -6227.2489000000005 -2.261998 6.2852727999999995 -3.401746
60703 22233.268 -911.34666 -484.15303000000006 -7003.214 -2.0464170999999998 7.2047579 -0.23307256
60703 22653.268 -1654.4681 2490.3142000000003 -6416.8175 -1.4338001999999999 6.725651300000001 2.9796797
60703 23073.268 -2076.2797 4981.004900000001 -4581.2053 -0.5412056700000001 4.9379202 5.617728199999999
60703 23493.268 -2093.852 6501.9121 -1851.3662 0.45967808000000004 2.1816165 7.1652822
60703 23913.268 -1702.5787 6752.9813 1240.3881999999999 1.3729234 -1.0070229000000002 7.3123747
60703 24333.268 -978.36933 5683.5065 4088.9211 2.0183526 -4.0010756 6.025887
60703 24753.268 -62.827455 3502.6377 6135.910900000001 2.2688669 -6.2110811 3.5595512
60703 25173.268 865.01574 637.41599 6981.1062 2.0760689 -7.2061946 0.39838799
60703 25593.268 1624.0201000000002 -2352.4788 6459.7458 1.477681 -6.7936705 -2.8408490000000004
60703 26013.268 2065.5773 -4882.272900000001 4673.0867 0.58974923 -5.0525472 -5.5267471
60703 26433.268 2102.995 -6456.89 1969.8129 -0.41466156000000004 -2.3205335000000002 -7.1314548
60703 26853.268 1728.7121000000002 -6767.545700000001 -1120.1013 -1.3378084 0.86530891 -7.3368314
60703 27273.268 1016.3922 -5754.8674 -3990.3731000000002 -1.9977673 3.8754737 -6.1056045
60703 27693.268 105.64172 -3619.3913 -6080.9706 -2.2668375999999997 6.1223921 -3.6861362
60703 28113.268 -825.67127 -780.20845 -6986.4187 -2.0948157000000003 7.1739386000000005 -0.5551396200000001
60703 28533.268 -1596.7461 2210.453 -6532.3702 -1.5163441 6.8323088 2.6817701
60703 28953.268 -2057.7179 4771.7001 -4806.5751 -0.6420999000000001 5.1618312 5.4013127999999995
60703 29373.268 -2118.1504 6404.0742 -2142.8725 0.35984678000000003 2.4801455000000003 7.072718200000001
60703 29793.268 -1765.1583 6786.2677 939.68942 1.2937034 -0.6919666999999999 7.362465
60703 30213.268 -1067.0398 5841.667 3838.0887000000002 1.975414 -3.7314058 6.2093601
60703 30633.268 -160.2899 3754.9959 5984.2705000000005 2.270644 -6.0396843 3.8405983999999997
60703 31053.268 777.79326 934.82339 6958.6194000000005 2.1222651 -7.1666564 0.72219322
60703 31473.268 1564.0757 -2067.9517 6571.145 1.5593904 -6.8941208 -2.5376985
60703 31893.268 2044.7088999999999 -4666.3736 4896.8456 0.69108022 -5.2737433000000005 -5.3039303
60703 32313.268 2125.3372999999997 -6351.969700000001 2262.1405 -0.31371916 -2.618846 -7.0333665000000005
60703 32733.268 1789.8069 -6793.8378 -816.64283 -1.2573285 0.5493416099999999 -7.3827644
60703 33153.268 1104.0239 -5906.2600999999995 -3735.2539 -1.9536097000000001 3.604634 -6.2854362
60703 33573.268 202.48569 -3865.1426 -5923.3572 -2.2672966000000003 5.9491866 -3.963251
60703 33993.268 -738.41311 -1072.2223000000001 -6956.231400000001 -2.1391858000000004 7.1301978 -0.8749039000000001
60703 34413.268 -1535.9443999999999 1929.0084 -6634.7841 -1.5959107 6.925505 2.3802511
60703 34833.268 -2035.1759 4555.509599999999 -5021.5865 -0.7417997900000001 5.3744604 5.175375
60703 35253.268 -2138.3552999999997 6295.3882 -2428.8851 0.25906449 2.7722429 6.9665473
60703 35673.268 -1824.3921 6806.9929 638.38963 1.2115218 -0.37693034000000003 7.3978833999999996
60703 36093.268 -1153.9433000000001 5988.6355 3580.7866000000004 1.9280434 -3.4552769 6.3800885
60703 36513.268 -257.98384 3999.9977000000003 5821.700400000001 2.2675203 -5.8568194 4.113531500000001
60703 36933.268 688.37011 1230.3092 6923.0702 2.1641399000000003 -7.1131664 1.0440868
60703 37353.268 1500.3785 -1779.4842 6669.9081 1.6383088000000001 -6.9812072 -2.229884
60703 37773.268 2019.2408 -4441.4016 5110.7216 0.7916339299999999 -5.484867 -5.0713516
60703 38193.268 2143.1805 -6234.691 2549.4555 -0.21152845 -2.9118632 -6.9222222
60703 38613.268 1847.3216000000002 -6806.7632 -512.4479600000001 -1.1737738 0.23279896 -7.414784399999999
60703 39033.268 1189.7654 -6046.2218 -3473.9881 -1.9050024 3.3272321000000002 -6.452771800000001
60703 39453.268 299.52959000000004 -4103.7601 -5755.427 -2.2627619 5.7641532 -4.2324046
60703 39873.268 -648.96117 -1362.6584 -6913.7071 -2.1792278 7.0723278 -1.1931532999999999
60703 40293.268 -1471.4293 1643.26 -6725.6018 -1.6726799 7.0053095999999995 2.0738289
60703 40713.268 -2008.1558 4330.0087 -5228.192599999999 -0.8407012 5.5769968 4.9394629000000005
60703 41133.268 -2154.245 6174.3550000000005 -2711.3489 0.15699631 3.0590711 6.8473668
60703 41553.268 -1880.0387 6813.872200000001 335.41696 1.126539 -0.062002671999999995 7.420334700000001
60703 41973.268 -1238.6718 6122.7873 3316.6206 1.8768511 -3.1742555 6.5393269
60703 42393.268 -355.21618 4235.1482000000005 5648.037200000001 2.2601465 -5.664885 4.3780199
60703 42813.268 597.63011 1520.4477 6873.7665 2.2019045999999998 -7.0475531 1.3619553000000002
60703 43233.268 1433.8357 -1491.0016 6754.5423 1.7138820000000001 -7.054611 -1.9204951000000001
60703 43653.268 1989.9183 -4211.017900000001 5312.6581 0.8903775700000001 -5.6832875000000005 -4.8308549
60703 44073.268 2156.8608 -6107.4917000000005 2829.3123 -0.10892415 -3.1966067 -6.797985300000001
60703 44493.268 1901.3413 -6807.6628 -209.61686 -1.0875080000000001 -0.08221326999999999 -7.4314431999999995
60703 44913.268 1273.5241 -6174.9176 -3207.6268 -1.8520385000000001 3.0440557 -6.6065965
60703 45333.268 396.75444 -4335.433 -5577.724099999999 -2.2531317 5.5675216 -4.492299699999999
60703 45753.268 -557.27977 -1651.6924 -6858.929700000001 -2.2147976 7.0002436 -1.5089464000000001
60703 46173.268 -1403.1083999999998 1352.9895000000001 -6804.5474 -1.7465256 7.0716241 1.7633324000000001
60703 46593.268 -1976.5052 4094.9226000000003 -5425.7356 -0.93861671 5.7692043 4.6945936
60703 47013.268 -2165.4997000000003 6040.3239 -2989.183 0.053997132999999996 3.3401308 6.7163971
60703 47433.268 -1931.9835 6806.959900000001 31.724965 1.0388001999999998 0.25262167 7.429716000000001
60703 47853.268 -1321.1307 6244.1338 3046.4586 1.8217054000000001 -2.8883623 6.686834300000001
60703 48273.268 -451.98536 4460.510200000001 5464.068 2.2482399 -5.463629200000001 4.6339869
60703 48693.268 505.46596999999997 1805.4292 6811.536 2.2353603 -6.969505600000001 1.6760931000000001
60703 49113.268 1364.2508 -1202.1354 6825.923 1.7861479999999998 -7.114417400000001 -1.6090187
60703 49533.268 1956.5748999999998 -3974.8035 5503.8090999999995 0.98756108 -5.869411299999999 -4.5820876
60703 49953.268 2166.3471 -5970.17 3102.9425 -0.0055494522 -3.4736609 -6.660685900000001
60703 50373.268 1951.9711000000002 -6796.5662999999995 92.984719 -0.9982637200000001 -0.39617844 -7.4331868000000005
60703 50793.268 1355.4791 -6292.5892 -2935.4469 -1.7946285 2.7551801 -6.7472379
60703 51213.268 494.09275 -4559.2353 -5389.3468 -2.2387104 5.360347 -4.7437255
60703 51633.268 -463.54734 -1937.9225000000001 -6791.097400000001 -2.2460831 6.9150049000000005 -1.8220078000000002
60703 52053.268 -1331.1888999999999 1059.9037 -6870.5558 -1.8173964 7.1247571 1.4496002000000001
60703 52473.268 -1940.3727 3851.8984 -5612.8319 -1.0353496 5.9505594 4.4413009
60703 52893.268 -2172.1815 5894.627 -3260.9402999999998 -0.049765402 3.6145831 6.573347300000001
60703 53313.268 -1980.0816000000002 6786.7485 -271.37819 0.94839976 0.56628544 7.4255417
60703 53733.268 -1401.183 6353.0149 2771.3307999999997 1.7624774 -2.5975961 6.8218811
60703 54153.268 -548.22344 4676.5723 5270.5788 2.2316386 -5.2524036 4.8810919
60703 54573.268 411.88727 2086.076 6737.1528 2.2644143 -6.8782342 1.9868032
60703 54993.268 1291.6065 -911.77319 6885.046 1.8551643 -7.1603111 -1.2945559
